[{"OBJECT_NAME":"RISAT-2BR1","OBJECT_ID":"2019-089F","EPOCH":"2026-03-09T22:23:56.080608","MEAN_MOTION":15.01632497,"ECCENTRICITY":0.00130957,"INCLINATION":36.9618,"RA_OF_ASC_NODE":340.419,"ARG_OF_PERICENTER":88.0635,"MEAN_ANOMALY":272.1607,"EPHEMERIS_TYPE":0,"CLASSIFICATION_TYPE":"U","NORAD_CAT_ID":44857,"ELEMENT_SET_NO":999,"REV_AT_EPOCH":34227,"BSTAR":0.00042406412,"MEAN_MOTION_DOT":5.543e-5,"MEAN_MOTION_DDOT":0},{"OBJECT_NAME":"STARLINK-34845","OBJECT_ID":"2025-184S","EPOCH":"2026-03-09T21:20:10.246272","MEAN_MOTION":15.05649466,"ECCENTRICITY":0.00010476,"INCLINATION":97.6041,"RA_OF_ASC_NODE":122.8987,"ARG_OF_PERICENTER":90.1053,"MEAN_ANOMALY":270.0294,"EPHEMERIS_TYPE":0,"CLASSIFICATION_TYPE":"U","NORAD_CAT_ID":65289,"ELEMENT_SET_NO":999,"REV_AT_EPOCH":3133,"BSTAR":0.00024019379,"MEAN_MOTION_DOT":3.407e-5,"MEAN_MOTION_DDOT":0}]
